[{"OBJECT_NAME":"LEMUR-2-AMANDA-SVANTE","OBJECT_ID":"2021-034B","EPOCH":"2026-03-09T18:37:58.823328","MEAN_MOTION":15.28469003,"ECCENTRICITY":0.00027027,"INCLINATION":97.5829,"RA_OF_ASC_NODE":144.8625,"ARG_OF_PERICENTER":205.4721,"MEAN_ANOMALY":154.6385,"EPHEMERIS_TYPE":0,"CLASSIFICATION_TYPE":"U","NORAD_CAT_ID":48269,"ELEMENT_SET_NO":999,"REV_AT_EPOCH":26584,"BSTAR":0.0011134246,"MEAN_MOTION_DOT":0.00030872,"MEAN_MOTION_DDOT":0},{"OBJECT_NAME":"STARLINK-31017","OBJECT_ID":"2023-191H","EPOCH":"2026-03-09T17:15:53.896320","MEAN_MOTION":15.27582052,"ECCENTRICITY":0.00015781,"INCLINATION":43.0039,"RA_OF_ASC_NODE":230.9942,"ARG_OF_PERICENTER":261.0061,"MEAN_ANOMALY":99.0612,"EPHEMERIS_TYPE":0,"CLASSIFICATION_TYPE":"U","NORAD_CAT_ID":58515,"ELEMENT_SET_NO":999,"REV_AT_EPOCH":12818,"BSTAR":2.2251561e-5,"MEAN_MOTION_DOT":3.5e-6,"MEAN_MOTION_DDOT":0}]
